STARLINK-37078          
1 68174U 26050H   26102.25002315 -.01882660  00000+0 -19925-1 0  9997
2 68174  53.1592 113.7607 0001294  98.7341 155.3246 15.66546046  5831
STARLINK-36886          
1 68175U 26050J   26102.25002315 -.01883556  00000+0 -19959-1 0  9990
2 68175  53.1592 113.7532 0001272  99.3529 158.6099 15.66516612  5838
STARLINK-36905          
1 68176U 26050K   26102.25002315 -.01886776  00000+0 -18208-1 0  9994
2 68176  53.1593 113.6921 0001156 105.4239 182.6217 15.68795064  5830
STARLINK-36668          
1 68177U 26050L   26102.25002315  .00019484  00000+0  35779-3 0  9990
2 68177  53.1598 114.4547 0001157  87.6218 184.4798 15.49286298  5835
STARLINK-36677          
1 68178U 26050M   26102.25002315 -.01916260  00000+0 -17762-1 0  9992
2 68178  53.1591 113.6551 0000888  90.7576 215.7581 15.69809892  5838
STARLINK-37052          
1 68179U 26050N   26102.25002315 -.01876484  00000+0 -23485-1 0  9995
2 68179  53.1593 113.8369 0001338  89.4057 126.9146 15.62349352  5833
STARLINK-37035          
1 68180U 26050P   26102.25002315 -.01878854  00000+0 -23240-1 0  9999
2 68180  53.1594 113.8183 0001318  91.6955 133.6483 15.62651926  5832
STARLINK-37032          
1 68181U 26050Q   26102.25002315 -.01880898  00000+0 -22868-1 0  9996
2 68181  53.1595 113.7959 0001291  94.2007 142.1741 15.63090569  5834
STARLINK-37082          
1 68182U 26050R   26102.25002315 -.01877561  00000+0 -26853-1 0  9998
2 68182  53.1601 113.9336 0001348  79.7254  89.5221 15.58912944  5830
STARLINK-37102          
1 68183U 26050S   26102.25002315 -.01900287  00000+0 -25079-1 0  9990
2 68183  53.1594 113.8488 0001581  84.9096 126.4768 15.61033151  5835
STARLINK-36964          
1 68184U 26050T   26102.25002315 -.01883002  00000+0 -21931-1 0  9999
2 68184  53.1594 113.7371 0001233 100.2908 164.9257 15.64174954  5834
STARLINK-37061          
1 68185U 26050U   26102.25002315 -.01881489  00000+0 -23207-1 0  9995
2 68185  53.1593 113.7726 0001269  96.5015 151.3685 15.62727995  5835
STARLINK-37079          
1 68186U 26050V   26102.25002315  .00011081  00000+0  20694-3 0  9995
2 68186  53.1598 114.6349 0001708  57.2522 125.3544 15.49319228  5833
STARLINK-37006          
1 68187U 26050W   26102.25002315 -.01879886  00000+0 -22953-1 0  9992
2 68187  53.1591 113.7468 0001276  97.9532 162.4112 15.62982434  5834
STARLINK-36305          
1 68189U 26050Y   26102.25002315 -.01879268  00000+0 -22400-1 0  9995
2 68189  53.1597 113.7107 0001233 102.2253 175.8258 15.63588242  5733
STARLINK-37071          
1 68190U 26050Z   26102.25002315 -.01886092  00000+0 -20302-1 0  9999
2 68190  53.1597 113.6218 0001016 108.2776 213.2909 15.66138547  5835
