[{"OBJECT_NAME":"STARLINK-37078","OBJECT_ID":"2026-050H","EPOCH":"2026-04-12T06:00:02.000160","MEAN_MOTION":15.66546046,"ECCENTRICITY":0.00012943,"INCLINATION":53.1592,"RA_OF_ASC_NODE":113.7607,"ARG_OF_PERICENTER":98.7341,"MEAN_ANOMALY":155.3246,"EPHEMERIS_TYPE":0,"CLASSIFICATION_TYPE":"U","NORAD_CAT_ID":68174,"ELEMENT_SET_NO":999,"REV_AT_EPOCH":583,"BSTAR":-0.019924629,"MEAN_MOTION_DOT":-0.0188266,"MEAN_MOTION_DDOT":0},{"OBJECT_NAME":"STARLINK-36886","OBJECT_ID":"2026-050J","EPOCH":"2026-04-12T06:00:02.000160","MEAN_MOTION":15.66516612,"ECCENTRICITY":0.00012725,"INCLINATION":53.1592,"RA_OF_ASC_NODE":113.7532,"ARG_OF_PERICENTER":99.3529,"MEAN_ANOMALY":158.6099,"EPHEMERIS_TYPE":0,"CLASSIFICATION_TYPE":"U","NORAD_CAT_ID":68175,"ELEMENT_SET_NO":999,"REV_AT_EPOCH":583,"BSTAR":-0.019959444,"MEAN_MOTION_DOT":-0.01883556,"MEAN_MOTION_DDOT":0},{"OBJECT_NAME":"STARLINK-36905","OBJECT_ID":"2026-050K","EPOCH":"2026-04-12T06:00:02.000160","MEAN_MOTION":15.68795064,"ECCENTRICITY":0.00011562,"INCLINATION":53.1593,"RA_OF_ASC_NODE":113.6921,"ARG_OF_PERICENTER":105.4239,"MEAN_ANOMALY":182.6217,"EPHEMERIS_TYPE":0,"CLASSIFICATION_TYPE":"U","NORAD_CAT_ID":68176,"ELEMENT_SET_NO":999,"REV_AT_EPOCH":583,"BSTAR":-0.018208,"MEAN_MOTION_DOT":-0.01886776,"MEAN_MOTION_DDOT":0},{"OBJECT_NAME":"STARLINK-36668","OBJECT_ID":"2026-050L","EPOCH":"2026-04-12T06:00:02.000160","MEAN_MOTION":15.49286298,"ECCENTRICITY":0.00011579,"INCLINATION":53.1598,"RA_OF_ASC_NODE":114.4547,"ARG_OF_PERICENTER":87.6218,"MEAN_ANOMALY":184.4798,"EPHEMERIS_TYPE":0,"CLASSIFICATION_TYPE":"U","NORAD_CAT_ID":68177,"ELEMENT_SET_NO":999,"REV_AT_EPOCH":583,"BSTAR":0.00035779076,"MEAN_MOTION_DOT":0.00019484,"MEAN_MOTION_DDOT":0},{"OBJECT_NAME":"STARLINK-36677","OBJECT_ID":"2026-050M","EPOCH":"2026-04-12T06:00:02.000160","MEAN_MOTION":15.69809892,"ECCENTRICITY":8.888e-5,"INCLINATION":53.1591,"RA_OF_ASC_NODE":113.6551,"ARG_OF_PERICENTER":90.7576,"MEAN_ANOMALY":215.7581,"EPHEMERIS_TYPE":0,"CLASSIFICATION_TYPE":"U","NORAD_CAT_ID":68178,"ELEMENT_SET_NO":999,"REV_AT_EPOCH":583,"BSTAR":-0.017761899,"MEAN_MOTION_DOT":-0.0191626,"MEAN_MOTION_DDOT":0},{"OBJECT_NAME":"STARLINK-37052","OBJECT_ID":"2026-050N","EPOCH":"2026-04-12T06:00:02.000160","MEAN_MOTION":15.62349352,"ECCENTRICITY":0.00013385,"INCLINATION":53.1593,"RA_OF_ASC_NODE":113.8369,"ARG_OF_PERICENTER":89.4057,"MEAN_ANOMALY":126.9146,"EPHEMERIS_TYPE":0,"CLASSIFICATION_TYPE":"U","NORAD_CAT_ID":68179,"ELEMENT_SET_NO":999,"REV_AT_EPOCH":583,"BSTAR":-0.023484742,"MEAN_MOTION_DOT":-0.01876484,"MEAN_MOTION_DDOT":0},{"OBJECT_NAME":"STARLINK-37035","OBJECT_ID":"2026-050P","EPOCH":"2026-04-12T06:00:02.000160","MEAN_MOTION":15.62651926,"ECCENTRICITY":0.00013182,"INCLINATION":53.1594,"RA_OF_ASC_NODE":113.8183,"ARG_OF_PERICENTER":91.6955,"MEAN_ANOMALY":133.6483,"EPHEMERIS_TYPE":0,"CLASSIFICATION_TYPE":"U","NORAD_CAT_ID":68180,"ELEMENT_SET_NO":999,"REV_AT_EPOCH":583,"BSTAR":-0.023239648,"MEAN_MOTION_DOT":-0.01878854,"MEAN_MOTION_DDOT":0},{"OBJECT_NAME":"STARLINK-37032","OBJECT_ID":"2026-050Q","EPOCH":"2026-04-12T06:00:02.000160","MEAN_MOTION":15.63090569,"ECCENTRICITY":0.00012916,"INCLINATION":53.1595,"RA_OF_ASC_NODE":113.7959,"ARG_OF_PERICENTER":94.2007,"MEAN_ANOMALY":142.1741,"EPHEMERIS_TYPE":0,"CLASSIFICATION_TYPE":"U","NORAD_CAT_ID":68181,"ELEMENT_SET_NO":999,"REV_AT_EPOCH":583,"BSTAR":-0.022868447,"MEAN_MOTION_DOT":-0.01880898,"MEAN_MOTION_DDOT":0},{"OBJECT_NAME":"STARLINK-37082","OBJECT_ID":"2026-050R","EPOCH":"2026-04-12T06:00:02.000160","MEAN_MOTION":15.58912944,"ECCENTRICITY":0.00013483,"INCLINATION":53.1601,"RA_OF_ASC_NODE":113.9336,"ARG_OF_PERICENTER":79.7254,"MEAN_ANOMALY":89.5221,"EPHEMERIS_TYPE":0,"CLASSIFICATION_TYPE":"U","NORAD_CAT_ID":68182,"ELEMENT_SET_NO":999,"REV_AT_EPOCH":583,"BSTAR":-0.026852855,"MEAN_MOTION_DOT":-0.01877561,"MEAN_MOTION_DDOT":0},{"OBJECT_NAME":"STARLINK-37102","OBJECT_ID":"2026-050S","EPOCH":"2026-04-12T06:00:02.000160","MEAN_MOTION":15.61033151,"ECCENTRICITY":0.00015819,"INCLINATION":53.1594,"RA_OF_ASC_NODE":113.8488,"ARG_OF_PERICENTER":84.9096,"MEAN_ANOMALY":126.4768,"EPHEMERIS_TYPE":0,"CLASSIFICATION_TYPE":"U","NORAD_CAT_ID":68183,"ELEMENT_SET_NO":999,"REV_AT_EPOCH":583,"BSTAR":-0.025078936,"MEAN_MOTION_DOT":-0.01900287,"MEAN_MOTION_DDOT":0},{"OBJECT_NAME":"STARLINK-36964","OBJECT_ID":"2026-050T","EPOCH":"2026-04-12T06:00:02.000160","MEAN_MOTION":15.64174954,"ECCENTRICITY":0.00012337,"INCLINATION":53.1594,"RA_OF_ASC_NODE":113.7371,"ARG_OF_PERICENTER":100.2908,"MEAN_ANOMALY":164.9257,"EPHEMERIS_TYPE":0,"CLASSIFICATION_TYPE":"U","NORAD_CAT_ID":68184,"ELEMENT_SET_NO":999,"REV_AT_EPOCH":583,"BSTAR":-0.021931046,"MEAN_MOTION_DOT":-0.01883002,"MEAN_MOTION_DDOT":0},{"OBJECT_NAME":"STARLINK-37061","OBJECT_ID":"2026-050U","EPOCH":"2026-04-12T06:00:02.000160","MEAN_MOTION":15.62727995,"ECCENTRICITY":0.00012696,"INCLINATION":53.1593,"RA_OF_ASC_NODE":113.7726,"ARG_OF_PERICENTER":96.5015,"MEAN_ANOMALY":151.3685,"EPHEMERIS_TYPE":0,"CLASSIFICATION_TYPE":"U","NORAD_CAT_ID":68185,"ELEMENT_SET_NO":999,"REV_AT_EPOCH":583,"BSTAR":-0.023207107,"MEAN_MOTION_DOT":-0.01881489,"MEAN_MOTION_DDOT":0},{"OBJECT_NAME":"STARLINK-37079","OBJECT_ID":"2026-050V","EPOCH":"2026-04-12T06:00:02.000160","MEAN_MOTION":15.49319228,"ECCENTRICITY":0.00017081,"INCLINATION":53.1598,"RA_OF_ASC_NODE":114.6349,"ARG_OF_PERICENTER":57.2522,"MEAN_ANOMALY":125.3544,"EPHEMERIS_TYPE":0,"CLASSIFICATION_TYPE":"U","NORAD_CAT_ID":68186,"ELEMENT_SET_NO":999,"REV_AT_EPOCH":583,"BSTAR":0.0002069359,"MEAN_MOTION_DOT":0.00011081,"MEAN_MOTION_DDOT":0},{"OBJECT_NAME":"STARLINK-37006","OBJECT_ID":"2026-050W","EPOCH":"2026-04-12T06:00:02.000160","MEAN_MOTION":15.62982434,"ECCENTRICITY":0.00012768,"INCLINATION":53.1591,"RA_OF_ASC_NODE":113.7468,"ARG_OF_PERICENTER":97.9532,"MEAN_ANOMALY":162.4112,"EPHEMERIS_TYPE":0,"CLASSIFICATION_TYPE":"U","NORAD_CAT_ID":68187,"ELEMENT_SET_NO":999,"REV_AT_EPOCH":583,"BSTAR":-0.022952729,"MEAN_MOTION_DOT":-0.01879886,"MEAN_MOTION_DDOT":0},{"OBJECT_NAME":"STARLINK-36305","OBJECT_ID":"2026-050Y","EPOCH":"2026-04-12T06:00:02.000160","MEAN_MOTION":15.63588242,"ECCENTRICITY":0.00012337,"INCLINATION":53.1597,"RA_OF_ASC_NODE":113.7107,"ARG_OF_PERICENTER":102.2253,"MEAN_ANOMALY":175.8258,"EPHEMERIS_TYPE":0,"CLASSIFICATION_TYPE":"U","NORAD_CAT_ID":68189,"ELEMENT_SET_NO":999,"REV_AT_EPOCH":573,"BSTAR":-0.022399818,"MEAN_MOTION_DOT":-0.01879268,"MEAN_MOTION_DDOT":0},{"OBJECT_NAME":"STARLINK-37071","OBJECT_ID":"2026-050Z","EPOCH":"2026-04-12T06:00:02.000160","MEAN_MOTION":15.66138547,"ECCENTRICITY":0.00010166,"INCLINATION":53.1597,"RA_OF_ASC_NODE":113.6218,"ARG_OF_PERICENTER":108.2776,"MEAN_ANOMALY":213.2909,"EPHEMERIS_TYPE":0,"CLASSIFICATION_TYPE":"U","NORAD_CAT_ID":68190,"ELEMENT_SET_NO":999,"REV_AT_EPOCH":583,"BSTAR":-0.020301824,"MEAN_MOTION_DOT":-0.01886092,"MEAN_MOTION_DDOT":0}]
